{
  "type": "FeatureCollection",
  "features": [
    {
      "type": "Feature",
      "properties": {
        "name": "E39 Stavanger-Bergen",
        "road": "E39"
      },
      "geometry": {
        "type": "LineString",
        "coordinates": [
          [5.7331, 58.97],
          [5.65, 59.12],
          [5.55, 59.28],
          [5.47, 59.4],
          [5.39, 59.55],
          [5.33, 59.72],
          [5.32, 59.91],
          [5.325, 60.39299]
        ]
      }
    },
    {
      "type": "Feature",
      "properties": {
        "name": "E39 Bergen-Forde",
        "road": "E39"
      },
      "geometry": {
        "type": "LineString",
        "coordinates": [
          [5.325, 60.39299],
          [5.42, 60.52],
          [5.55, 60.68],
          [5.72, 60.87],
          [5.89, 61.05],
          [5.96, 61.45],
          [5.74, 61.45217]
        ]
      }
    },
    {
      "type": "Feature",
      "properties": {
        "name": "E39 Forde-Alesund",
        "road": "E39"
      },
      "geometry": {
        "type": "LineString",
        "coordinates": [
          [5.74, 61.45217],
          [5.92, 61.58],
          [6.1, 61.74],
          [6.22, 61.93],
          [6.15, 62.15],
          [6.15492, 62.47225]
        ]
      }
    },
    {
      "type": "Feature",
      "properties": {
        "name": "E16 Bergen-Voss",
        "road": "E16"
      },
      "geometry": {
        "type": "LineString",
        "coordinates": [
          [5.325, 60.39299],
          [5.5, 60.45],
          [5.8, 60.53],
          [6.0, 60.63],
          [6.18, 60.72],
          [6.42, 60.63],
          [6.42139, 60.62869]
        ]
      }
    },
    {
      "type": "Feature",
      "properties": {
        "name": "Rv13 Bergen-Vossfjord-Sogn",
        "road": "Rv13"
      },
      "geometry": {
        "type": "LineString",
        "coordinates": [
          [5.325, 60.39299],
          [5.62, 60.4],
          [5.89, 60.38],
          [6.12, 60.37],
          [6.49, 60.37],
          [6.84, 60.7],
          [7.12, 61.23]
        ]
      }
    },
    {
      "type": "Feature",
      "properties": {
        "name": "E134 Haugesund-Drammen retning via Etne",
        "road": "E134"
      },
      "geometry": {
        "type": "LineString",
        "coordinates": [
          [5.268, 59.41378],
          [5.42, 59.47],
          [5.58, 59.52],
          [5.75, 59.59],
          [5.99, 59.66],
          [6.12, 59.67],
          [6.35411, 59.66472]
        ]
      }
    },
    {
      "type": "Feature",
      "properties": {
        "name": "E136 Alesund-Dombas retning via Andalsnes",
        "road": "E136"
      },
      "geometry": {
        "type": "LineString",
        "coordinates": [
          [6.15492, 62.47225],
          [6.38, 62.37],
          [6.56, 62.28],
          [6.82, 62.23],
          [7.69, 62.56667]
        ]
      }
    },
    {
      "type": "Feature",
      "properties": {
        "name": "Rv5 Forde-Skei",
        "road": "Rv5"
      },
      "geometry": {
        "type": "LineString",
        "coordinates": [
          [5.74, 61.45217],
          [5.93, 61.5],
          [6.09, 61.54],
          [6.18, 61.57],
          [6.48, 61.57194]
        ]
      }
    }
  ]
}
